STARLINK-30089          
1 56296U 23056L   26050.03168657 -.00001219  00000+0 -75088-4 0  9999
2 56296  43.0083 272.7654 0002250 250.6241 109.4358 15.02562601157663
STARLINK-30086          
1 56297U 23056M   26050.74888677 -.00000265  00000+0 -45697-5 0  9993
2 56297  43.0037 307.8193 0000952 273.5624  86.5109 15.02533970157326
STARLINK-30109          
1 56298U 23056N   26050.82160200  .00042423  00000+0  31066-2 0  9990
2 56298  43.0033 307.5078 0001530 316.4420  43.6301 15.02897311157393
STARLINK-30108          
1 56299U 23056P   26050.91670139  .00057618  00000+0  32586-2 0  9998
2 56299  42.9980 294.2464 0001906 297.0942 110.4765 15.12274986  5773
STARLINK-30104          
1 56300U 23056Q   26050.77542082  .00001680  00000+0  13947-3 0  9999
2 56300  43.0045 307.2428 0001318 273.0513  87.0178 15.02521939157395
STARLINK-30101          
1 56301U 23056R   26050.73890701  .00000171  00000+0  27759-4 0  9991
2 56301  43.0051 307.8080 0001512 254.7219 105.3457 15.02529324157387
STARLINK-30111          
1 56302U 23056S   26050.06745608  .00000140  00000+0  25425-4 0  9997
2 56302  43.0057 311.3045 0001203 268.1353  91.9352 15.02536305157280
STARLINK-30099          
1 56304U 23056U   26050.72890668  .00000470  00000+0  49882-4 0  9998
2 56304  43.0048 307.6564 0001527 264.1266  95.9403 15.02539759157382
STARLINK-30094          
1 56305U 23056V   26050.72558479  .00002093  00000+0  16994-3 0  9990
2 56305  43.0048 307.6226 0001248 263.8498  96.2202 15.02544546157382
STARLINK-30112          
1 56306U 23056W   26050.73556672  .00000125  00000+0  24279-4 0  9995
2 56306  43.0033 307.7176 0000691 268.1034  91.9729 15.02536120157382
STARLINK-6038           
1 56317U 23058A   26050.59001638 -.00000327  00000+0 -18465-4 0  9996
2 56317  97.6054  53.3805 0002045  86.4253 273.7208 15.05644447155121
STARLINK-5954           
1 56318U 23058B   26050.89461790  .00001131  00000+0  82554-4 0  9991
2 56318  97.6045  53.7444 0001811  84.1985 275.9448 15.05651430155177
STARLINK-6039           
1 56319U 23058C   26050.87533731  .00000882  00000+0  73164-4 0  9994
2 56319  97.6053  52.7085 0003805  60.7874 299.3731 15.01262022155108
STARLINK-5988           
1 56320U 23058D   26050.94778935  .00001701  00000+0  13692-3 0  9991
2 56320  97.6056  52.7656 0002605  72.0342 288.1166 15.01264111155121
STARLINK-5876           
1 56321U 23058E   26050.90569892 -.00026748  00000+0 -18563-2 0  9999
2 56321  97.6022  53.7327 0002545 129.2694 230.8759 15.05650479155176
STARLINK-6033           
1 56322U 23058F   26050.54578534  .00001457  00000+0  11794-3 0  9991
2 56322  97.6057  52.3762 0002582  75.8886 284.2625 15.01272789155055
