[{"OBJECT_NAME":"STARLINK-30089","OBJECT_ID":"2023-056L","EPOCH":"2026-02-19T00:45:37.719648","MEAN_MOTION":15.02562601,"ECCENTRICITY":0.00022505,"INCLINATION":43.0083,"RA_OF_ASC_NODE":272.7654,"ARG_OF_PERICENTER":250.6241,"MEAN_ANOMALY":109.4358,"EPHEMERIS_TYPE":0,"CLASSIFICATION_TYPE":"U","NORAD_CAT_ID":56296,"ELEMENT_SET_NO":999,"REV_AT_EPOCH":15766,"BSTAR":-7.5088079e-5,"MEAN_MOTION_DOT":-1.219e-5,"MEAN_MOTION_DDOT":0},{"OBJECT_NAME":"STARLINK-30086","OBJECT_ID":"2023-056M","EPOCH":"2026-02-19T17:58:23.816928","MEAN_MOTION":15.0253397,"ECCENTRICITY":9.522e-5,"INCLINATION":43.0037,"RA_OF_ASC_NODE":307.8193,"ARG_OF_PERICENTER":273.5624,"MEAN_ANOMALY":86.5109,"EPHEMERIS_TYPE":0,"CLASSIFICATION_TYPE":"U","NORAD_CAT_ID":56297,"ELEMENT_SET_NO":999,"REV_AT_EPOCH":15732,"BSTAR":-4.56969e-6,"MEAN_MOTION_DOT":-2.65e-6,"MEAN_MOTION_DDOT":0},{"OBJECT_NAME":"STARLINK-30109","OBJECT_ID":"2023-056N","EPOCH":"2026-02-19T19:43:06.412800","MEAN_MOTION":15.02897311,"ECCENTRICITY":0.00015306,"INCLINATION":43.0033,"RA_OF_ASC_NODE":307.5078,"ARG_OF_PERICENTER":316.442,"MEAN_ANOMALY":43.6301,"EPHEMERIS_TYPE":0,"CLASSIFICATION_TYPE":"U","NORAD_CAT_ID":56298,"ELEMENT_SET_NO":999,"REV_AT_EPOCH":15739,"BSTAR":0.0031066243,"MEAN_MOTION_DOT":0.00042423,"MEAN_MOTION_DDOT":0},{"OBJECT_NAME":"STARLINK-30108","OBJECT_ID":"2023-056P","EPOCH":"2026-02-19T22:00:03.000096","MEAN_MOTION":15.12274986,"ECCENTRICITY":0.00019068,"INCLINATION":42.998,"RA_OF_ASC_NODE":294.2464,"ARG_OF_PERICENTER":297.0942,"MEAN_ANOMALY":110.4765,"EPHEMERIS_TYPE":0,"CLASSIFICATION_TYPE":"U","NORAD_CAT_ID":56299,"ELEMENT_SET_NO":999,"REV_AT_EPOCH":577,"BSTAR":0.0032586098,"MEAN_MOTION_DOT":0.00057618,"MEAN_MOTION_DDOT":0},{"OBJECT_NAME":"STARLINK-30104","OBJECT_ID":"2023-056Q","EPOCH":"2026-02-19T18:36:36.358848","MEAN_MOTION":15.02521939,"ECCENTRICITY":0.00013189,"INCLINATION":43.0045,"RA_OF_ASC_NODE":307.2428,"ARG_OF_PERICENTER":273.0513,"MEAN_ANOMALY":87.0178,"EPHEMERIS_TYPE":0,"CLASSIFICATION_TYPE":"U","NORAD_CAT_ID":56300,"ELEMENT_SET_NO":999,"REV_AT_EPOCH":15739,"BSTAR":0.00013947302,"MEAN_MOTION_DOT":1.68e-5,"MEAN_MOTION_DDOT":0},{"OBJECT_NAME":"STARLINK-30101","OBJECT_ID":"2023-056R","EPOCH":"2026-02-19T17:44:01.565664","MEAN_MOTION":15.02529324,"ECCENTRICITY":0.00015128,"INCLINATION":43.0051,"RA_OF_ASC_NODE":307.808,"ARG_OF_PERICENTER":254.7219,"MEAN_ANOMALY":105.3457,"EPHEMERIS_TYPE":0,"CLASSIFICATION_TYPE":"U","NORAD_CAT_ID":56301,"ELEMENT_SET_NO":999,"REV_AT_EPOCH":15738,"BSTAR":2.7758935e-5,"MEAN_MOTION_DOT":1.71e-6,"MEAN_MOTION_DDOT":0},{"OBJECT_NAME":"STARLINK-30111","OBJECT_ID":"2023-056S","EPOCH":"2026-02-19T01:37:08.205312","MEAN_MOTION":15.02536305,"ECCENTRICITY":0.00012031,"INCLINATION":43.0057,"RA_OF_ASC_NODE":311.3045,"ARG_OF_PERICENTER":268.1353,"MEAN_ANOMALY":91.9352,"EPHEMERIS_TYPE":0,"CLASSIFICATION_TYPE":"U","NORAD_CAT_ID":56302,"ELEMENT_SET_NO":999,"REV_AT_EPOCH":15728,"BSTAR":2.5425082e-5,"MEAN_MOTION_DOT":1.4e-6,"MEAN_MOTION_DDOT":0},{"OBJECT_NAME":"STARLINK-30099","OBJECT_ID":"2023-056U","EPOCH":"2026-02-19T17:29:37.537152","MEAN_MOTION":15.02539759,"ECCENTRICITY":0.0001527,"INCLINATION":43.0048,"RA_OF_ASC_NODE":307.6564,"ARG_OF_PERICENTER":264.1266,"MEAN_ANOMALY":95.9403,"EPHEMERIS_TYPE":0,"CLASSIFICATION_TYPE":"U","NORAD_CAT_ID":56304,"ELEMENT_SET_NO":999,"REV_AT_EPOCH":15738,"BSTAR":4.9881504e-5,"MEAN_MOTION_DOT":4.7e-6,"MEAN_MOTION_DDOT":0},{"OBJECT_NAME":"STARLINK-30094","OBJECT_ID":"2023-056V","EPOCH":"2026-02-19T17:24:50.525856","MEAN_MOTION":15.02544546,"ECCENTRICITY":0.00012488,"INCLINATION":43.0048,"RA_OF_ASC_NODE":307.6226,"ARG_OF_PERICENTER":263.8498,"MEAN_ANOMALY":96.2202,"EPHEMERIS_TYPE":0,"CLASSIFICATION_TYPE":"U","NORAD_CAT_ID":56305,"ELEMENT_SET_NO":999,"REV_AT_EPOCH":15738,"BSTAR":0.00016994326,"MEAN_MOTION_DOT":2.093e-5,"MEAN_MOTION_DDOT":0},{"OBJECT_NAME":"STARLINK-30112","OBJECT_ID":"2023-056W","EPOCH":"2026-02-19T17:39:12.964608","MEAN_MOTION":15.0253612,"ECCENTRICITY":6.917e-5,"INCLINATION":43.0033,"RA_OF_ASC_NODE":307.7176,"ARG_OF_PERICENTER":268.1034,"MEAN_ANOMALY":91.9729,"EPHEMERIS_TYPE":0,"CLASSIFICATION_TYPE":"U","NORAD_CAT_ID":56306,"ELEMENT_SET_NO":999,"REV_AT_EPOCH":15738,"BSTAR":2.4278577e-5,"MEAN_MOTION_DOT":1.25e-6,"MEAN_MOTION_DDOT":0},{"OBJECT_NAME":"STARLINK-6038","OBJECT_ID":"2023-058A","EPOCH":"2026-02-19T14:09:37.415232","MEAN_MOTION":15.05644447,"ECCENTRICITY":0.0002045,"INCLINATION":97.6054,"RA_OF_ASC_NODE":53.3805,"ARG_OF_PERICENTER":86.4253,"MEAN_ANOMALY":273.7208,"EPHEMERIS_TYPE":0,"CLASSIFICATION_TYPE":"U","NORAD_CAT_ID":56317,"ELEMENT_SET_NO":999,"REV_AT_EPOCH":15512,"BSTAR":-1.8465e-5,"MEAN_MOTION_DOT":-3.27e-6,"MEAN_MOTION_DDOT":0},{"OBJECT_NAME":"STARLINK-5954","OBJECT_ID":"2023-058B","EPOCH":"2026-02-19T21:28:14.986560","MEAN_MOTION":15.0565143,"ECCENTRICITY":0.00018118,"INCLINATION":97.6045,"RA_OF_ASC_NODE":53.7444,"ARG_OF_PERICENTER":84.1985,"MEAN_ANOMALY":275.9448,"EPHEMERIS_TYPE":0,"CLASSIFICATION_TYPE":"U","NORAD_CAT_ID":56318,"ELEMENT_SET_NO":999,"REV_AT_EPOCH":15517,"BSTAR":8.2553606e-5,"MEAN_MOTION_DOT":1.131e-5,"MEAN_MOTION_DDOT":0},{"OBJECT_NAME":"STARLINK-6039","OBJECT_ID":"2023-058C","EPOCH":"2026-02-19T21:00:29.143584","MEAN_MOTION":15.01262022,"ECCENTRICITY":0.00038054,"INCLINATION":97.6053,"RA_OF_ASC_NODE":52.7085,"ARG_OF_PERICENTER":60.7874,"MEAN_ANOMALY":299.3731,"EPHEMERIS_TYPE":0,"CLASSIFICATION_TYPE":"U","NORAD_CAT_ID":56319,"ELEMENT_SET_NO":999,"REV_AT_EPOCH":15510,"BSTAR":7.3163812e-5,"MEAN_MOTION_DOT":8.82e-6,"MEAN_MOTION_DDOT":0},{"OBJECT_NAME":"STARLINK-5988","OBJECT_ID":"2023-058D","EPOCH":"2026-02-19T22:44:48.999840","MEAN_MOTION":15.01264111,"ECCENTRICITY":0.00026056,"INCLINATION":97.6056,"RA_OF_ASC_NODE":52.7656,"ARG_OF_PERICENTER":72.0342,"MEAN_ANOMALY":288.1166,"EPHEMERIS_TYPE":0,"CLASSIFICATION_TYPE":"U","NORAD_CAT_ID":56320,"ELEMENT_SET_NO":999,"REV_AT_EPOCH":15512,"BSTAR":0.00013692153,"MEAN_MOTION_DOT":1.701e-5,"MEAN_MOTION_DDOT":0},{"OBJECT_NAME":"STARLINK-5876","OBJECT_ID":"2023-058E","EPOCH":"2026-02-19T21:44:12.386688","MEAN_MOTION":15.05650479,"ECCENTRICITY":0.0002545,"INCLINATION":97.6022,"RA_OF_ASC_NODE":53.7327,"ARG_OF_PERICENTER":129.2694,"MEAN_ANOMALY":230.8759,"EPHEMERIS_TYPE":0,"CLASSIFICATION_TYPE":"U","NORAD_CAT_ID":56321,"ELEMENT_SET_NO":999,"REV_AT_EPOCH":15517,"BSTAR":-0.0018563361,"MEAN_MOTION_DOT":-0.00026748,"MEAN_MOTION_DDOT":0},{"OBJECT_NAME":"STARLINK-6033","OBJECT_ID":"2023-058F","EPOCH":"2026-02-19T13:05:55.853376","MEAN_MOTION":15.01272789,"ECCENTRICITY":0.0002582,"INCLINATION":97.6057,"RA_OF_ASC_NODE":52.3762,"ARG_OF_PERICENTER":75.8886,"MEAN_ANOMALY":284.2625,"EPHEMERIS_TYPE":0,"CLASSIFICATION_TYPE":"U","NORAD_CAT_ID":56322,"ELEMENT_SET_NO":999,"REV_AT_EPOCH":15505,"BSTAR":0.00011794,"MEAN_MOTION_DOT":1.457e-5,"MEAN_MOTION_DDOT":0}]
